{"type": "FeatureCollection", "features": [{"type": "Feature", "geometry": {"type": "Polygon", "coordinates": [[[-55.69094428971784, 64.0752587069341], [-55.75023506452379, 64.21201273186031], [-55.81017928236861, 64.34881180364683], [-55.87078767206718, 64.48565510665013], [-55.93207119555862, 64.62254181367454], [-55.99404105418534, 64.75947108569004], [-56.05670869517309, 64.89644207154053], [-56.12008581831946, 65.0334539076426], [-56.184184382898515, 65.17050571767403], [-56.24901661478964, 65.30759661225208], [-56.31459501383903, 65.44472568860057], [-56.3809323614625, 65.58189203020589], [-56.448041728498765, 65.71909470646126], [-56.51593648332271, 65.85633277229864], [-56.584630300228554, 65.99360526780812], [-56.65413716809321, 66.13091121784394], [-56.72447139933066, 66.26824963161701], [-56.79564763914859, 66.4056195022729], [-56.867680875119014, 66.54301980645518], [-56.940586447075106, 66.68044950385318], [-57.01438005734705, 66.81790753673388], [-57.0890777813503, 66.95539282945667], [-57.16469607854007, 67.09290428797104], [-57.241251803746735, 67.230440799296], [-57.31876221890721, 67.36800123098051], [-57.39724500520839, 67.5055844305443], [-57.47671827565892, 67.64318922489815], [-57.55720058810701, 67.78081441974267], [-57.638710958722186, 67.91845879894497], [-57.72126887595995, 68.05612112389184], [-57.80489431502917, 68.19380013281885], [-57.889607752883116, 68.33149454011401], [-57.975430183755414, 68.46920303559511], [-58.06238313526405, 68.60692428375948], [-58.15048868510675, 68.7446569230049], [-58.23976947837292, 68.88239956482059], [-58.33024874549783, 69.02015079294672], [-58.42195032088643, 69.15790916250126], [-58.514898662235325, 69.29567319907244], [-58.60911887058258, 69.43344139777552], [-58.70463671111667, 69.57121222227221], [-58.8014786347775, 69.70898410375075], [-58.89967180068347, 69.84675543986538], [-58.99924409942075, 69.98452459363274], [-59.100224177232434, 70.12228989228369], [-59.20264146114699, 70.26004962606814], [-59.3065261850874, 70.39780204701094], [-59.41190941700452, 70.53554536761624], [-59.518823087080065, 70.67327775951823], [-59.62730001704699, 70.81099735207532], [-59.25297830358504, 70.84267698184128], [-58.877410044801216, 70.87355359080865], [-58.50062143648759, 70.90362298336419], [-58.12263926709471, 70.93288104786981], [-57.74349091055462, 70.96132375908124], [-57.36320431844802, 70.98894718054235], [-56.98180801151435, 71.01574746695238], [-56.5993310705042, 71.04172086650277], [-56.215803126375235, 71.06686372318067], [-55.83125434983415, 71.09117247903569], [-55.44571544022803, 71.11464367640734], [-55.05921761379036, 71.13727396010955], [-54.671792591248035, 71.15906007956957], [-54.28347258479717, 71.17999889091786], [-53.894290284456815, 71.20008735902634], [-53.50427884381135, 71.21932255949164], [-53.11347186515326, 71.23770168056076], [-52.72190338403989, 71.25522202499599], [-52.32960785327875, 71.27188101187636], [-51.936620126357504, 71.28767617833296], [-51.54297544033613, 71.30260518121538], [-51.14870939821986, 71.31666579868656], [-50.75385795083302, 71.32985593174378], [-50.35845737821504, 71.34217360566319], [-49.9625442705609, 71.35361697136571], [-49.56615550872993, 71.364184306702], [-49.16932824434742, 71.3738740176544], [-48.77209987952498, 71.38268463945414], [-48.3745080462263, 71.39061483761154], [-47.97659058530607, 71.39766340885802], [-47.578385525250596, 71.40382928199791], [-47.179931060649466, 71.40911151866896], [-46.78126553042825, 71.41350931401013], [-46.38242739587309, 71.41702199723552], [-45.9834552184782, 71.41964903211365], [-45.584387637648305, 71.42139001735109], [-45.18526334828784, 71.4222446868798], [-44.7861210783096, 71.42221291004802], [-44.38699956609526, 71.42129469171384], [-43.987937537940795, 71.41949017224174], [-43.588973685519356, 71.41679962740199], [-43.190146643394584, 71.41322346817284], [-42.79149496661694, 71.40876224044639], [-42.393057108435336, 71.40341662463786], [-41.99487139815642, 71.39718743519963], [-41.596976019182975, 71.39007562004059], [-41.19940898726274, 71.38208225985152], [-40.80220812897841, 71.37320856733807], [-40.40541106050862, 71.36345588636246], [-40.440843486066555, 71.22139275142497], [-40.47573472783697, 71.0793786822154], [-40.510097065361904, 70.9374142338179], [-40.54394241022386, 70.79549995550927], [-40.57728231969817, 70.65363639093486], [-40.6101280098031, 70.51182407827646], [-40.64249036777855, 70.37006355041248], [-40.67437996402232, 70.22835533507113], [-40.70580706351093, 70.0866999549765], [-40.73678163673102, 69.94509792798848], [-40.767313370145445, 69.80354976723625], [-40.79741167621695, 69.66205598124606], [-40.82708570301116, 69.52061707406341], [-40.856344343399066, 69.37923354536997], [-40.885196243878696, 69.23790589059534], [-40.91364981303383, 69.09663460102419], [-40.941713229647256, 68.95542016389875], [-40.96939445048482, 68.81426306251694], [-40.99670121776572, 68.67316377632648], [-41.02364106633366, 68.53212278101485], [-41.05022133054281, 68.39114054859574], [-41.076449150871525, 68.2502175474918], [-41.10233148027653, 68.10935424261386], [-41.12787509029906, 67.96855109543714], [-41.15308657693442, 67.82780856407423], [-41.17797236627543, 67.68712710334503], [-41.20253871993986, 67.54650716484396], [-41.22679174029148, 67.40594919700446], [-41.250737375463736, 67.26545364516092], [-41.274381424194715, 67.12502095160804], [-41.29772954048167, 66.98465155565798], [-41.32078723806277, 66.84434589369509], [-41.34355989473367, 66.70410439922871], [-41.36605275650577, 66.56392750294367], [-41.38827094161301, 66.42381563274895], [-41.41021944437357, 66.28376921382448], [-41.43190313891251, 66.14378866866606], [-41.45332678275126, 66.00387441712853], [-41.47449502026927, 65.86402687646743], [-41.49541238604335, 65.72424646137888], [-41.516083308069504, 65.58453358403817], [-41.53651211087215, 65.44488865413665], [-41.5567030185053, 65.30531207891737], [-41.57666015744989, 65.16580426320947], [-41.596387559411696, 65.02636560946101], [-41.61588916402351, 64.88699651777094], [-41.63516882145556, 64.7476973859195], [-41.65423029493773, 64.60846860939787], [-41.67307726319698, 64.46931058143646], [-41.96090972418251, 64.47621715762023], [-42.2488958036615, 64.48249973640208], [-42.53702106251404, 64.48815779675988], [-42.8252710195065, 64.49319086903404], [-43.11363115562145, 64.49759853510096], [-43.40208691841603, 64.50138042852771], [-43.69062372640574, 64.50453623470766], [-43.97922697347014, 64.50706569097717], [-44.26788203327732, 64.50896858671307], [-44.55657426372361, 64.51024476341082], [-44.845289011385525, 64.51089411474348], [-45.134011615980015, 64.51091658660116], [-45.42272741483023, 64.51031217711119], [-45.71142174733286, 64.50908093663885], [-46.00007995942409, 64.5072229677686], [-46.288687408040495, 64.50473842526586], [-46.57722946557149, 64.50162751601964], [-46.86569152430019, 64.49789049896569], [-47.15405900082901, 64.49352768499026], [-47.44231734048685, 64.48853943681502], [-47.730452021714555, 64.48292616886262], [-48.0184485604252, 64.4766883471034], [-48.30629251433617, 64.46982648888334], [-48.59396948726965, 64.4623411627332], [-48.88146513341843, 64.45423298815935], [-49.16876516157391, 64.44550263541606], [-49.45585533931321, 64.43615082525984], [-49.742721497142455, 64.42617832868584], [-50.029349532593145, 64.41558596664639], [-50.315725414268805, 64.4043746097524], [-50.601835185839214, 64.39254517795735], [-50.887664969979234, 64.38009864022438], [-51.17320097224978, 64.36703601417685], [-51.45842948491819, 64.35335836573252], [-51.7433368907156, 64.33906680872157], [-52.02790966652883, 64.32416250448912], [-52.3121343870245, 64.30864666148224], [-52.59599772820304, 64.29252053482188], [-52.879486470880536, 64.2757854258602], [-53.16258750409629, 64.25844268172362], [-53.44528782844413, 64.24049369484175], [-53.727574559325674, 64.22193990246282], [-54.00943493012362, 64.20278278615604], [-54.2908562952936, 64.18302387130093], [-54.57182613337285, 64.16266472656457], [-54.852332049904334, 64.14170696336654], [-55.13236178027491, 64.12015223533258], [-55.41190319246632, 64.09800223773694], [-55.69094428971784, 64.0752587069341]]]}, "properties": {"name": "greenland"}}, {"type": "Feature", "geometry": {"type": "Polygon", "coordinates": [[[-80.07609067240324, -63.74219721136665], [-79.52391223252194, -63.69814985542903], [-78.97369472267373, -63.6517577512754], [-78.42552864056447, -63.60303502961133], [-77.87950230864692, -63.55199642683023], [-77.33570180704372, -63.49865726633393], [-76.79421091198543, -63.4430334393717], [-76.25511103980543, -63.3851413854505], [-75.71848119651136, -63.324998072369766], [-75.18439793292998, -63.26262097593325], [-74.6529353054009, -63.19802805939049], [-74.12416484197439, -63.13123775265918], [-73.59815551404833, -63.062268931379684], [-73.07497371336092, -62.99114089585096], [-72.55468323423871, -62.91787334989645], [-72.03734526098295, -62.84248637970714], [-71.52301836026207, -62.76500043270703], [-71.01175847836548, -62.68543629648499], [-70.50361894316003, -62.60381507783476], [-69.99865047058093, -62.520158181943685], [-69.49690117547817, -62.4344872917676], [-68.99841658663183, -62.34682434762852], [-68.5032396657421, -62.257191527068805], [-68.0114108301946, -62.16561122499368], [-67.52296797939648, -62.07210603413169], [-67.03794652447584, -61.97669872584059], [-66.5563794211347, -61.87941223128375], [-66.07829720544461, -61.78026962300049], [-65.6037280323741, -61.679294096890764], [-65.13269771683743, -61.57650895463333], [-64.66522977705729, -61.47193758655387], [-64.20134548003492, -61.36560345495776], [-63.741063888925936, -61.257530077940174], [-63.28440191212402, -61.14774101368402], [-62.831374353858465, -61.03625984525477], [-62.38199396611808, -60.92311016589914], [-61.93627150171917, -60.80831556485288], [-61.49421576834116, -60.69189961366163], [-61.05583368336088, -60.5738858530165], [-60.62113032932276, -60.45429778010574], [-60.190109009889355, -60.3331588364812], [-59.76277130612433, -60.21049239643775], [-59.339117132967104, -60.0863217559028], [-58.919144795766066, -59.96067012183101], [-58.5028510467447, -59.83356060209933], [-58.09023114128292, -59.705016195895716], [-57.68127889390281, -59.57505978459452], [-57.27598673385619, -59.44371412311039], [-56.87434576021808, -59.311001831722166], [-56.47634579639785, -59.17694538835732], [-56.23404324070547, -59.36331307448238], [-55.98863615801448, -59.549311041352205], [-55.74007367754731, -59.73492692091691], [-55.488304087111146, -59.92014808813756], [-55.233274826957796, -60.10496165508124], [-54.97493248428997, -60.289354464900995], [-54.713222788476365, -60.47331308570084], [-54.448090607041536, -60.65682380428756], [-54.17947994250079, -60.83987261980979], [-53.90733393011495, -61.0224452372867], [-53.63159483664369, -61.20452706102817], [-53.352204060181876, -61.38610318794877], [-53.069102131167256, -61.56715840077909], [-52.78222871465388, -61.74767716117741], [-52.49152261395025, -61.9276436027462], [-52.19692177572739, -62.10704152395804], [-51.89836329670715, -62.28585438099623], [-51.595783432047654, -62.4640652805164], [-51.289117605548306, -62.64165697233571], [-50.97830042180345, -62.81861184205745], [-50.66326568044028, -62.99491190363942], [-50.34394639258267, -63.170538791915625], [-50.02027479969038, -63.3454737550818], [-49.69218239492846, -63.519697647155965], [-49.35959994723041, -63.69319092042695], [-49.022457528223626, -63.86593361790464], [-48.68068454219485, -64.03790536578681], [-48.33420975927805, -64.20908536595947], [-47.98296135205628, -64.37945238854799], [-47.62686693577402, -64.54898476453901], [-47.26585361236445, -64.71766037849379], [-46.89984801850173, -64.88545666137558], [-46.5287763778948, -65.05235058351583], [-46.152564558044766, -65.21831864774505], [-45.77113813169325, -65.38333688271699], [-45.38442244319359, -65.54738083645594], [-44.99234268004078, -65.71042557015993], [-44.59482394979928, -65.87244565229386], [-44.19179136266987, -66.03341515300984], [-43.78317011993791, -66.19330763893338], [-43.36888560854538, -66.35209616835736], [-42.94886350202764, -66.50975328688747], [-42.52302986805243, -66.66625102358566], [-42.09131128279468, -66.82156088766081], [-41.65363495237311, -66.97565386575802], [-41.20992884156665, -67.12850041990099], [-40.760121810016884, -67.28007048614414], [-40.30414375610951, -67.43033347399412], [-39.84192576871114, -67.57925826666256], [-40.268991080801825, -67.77239266935769], [-40.70370614310117, -67.96442258498922], [-41.14622693414529, -68.15531156045141], [-41.59671135792609, -68.34502213054107], [-42.055319113110485, -68.53351579395303], [-42.52221154479893, -68.72075298951829], [-42.997551477514115, -68.90669307279566], [-43.48150302805566, -69.09129429313865], [-43.97423139680537, -69.27451377137291], [-44.47590263602166, -69.45630747823189], [-44.98668339362054, -69.63663021371312], [-45.50674063090803, -69.81543558753222], [-46.036241312704504, -69.99267600086722], [-46.57535206828914, -70.16830262960247], [-47.12423882159256, -70.342265409298], [-47.68306638908216, -70.51451302212801], [-48.25199804381806, -70.68499288604986], [-48.83119504421292, -70.85365114648354], [-49.42081612610639, -71.02043267079989], [-50.02101695687108, -71.18528104593409], [-50.631949550400996, -71.34813857945967], [-51.25376164200242, -71.50894630447505], [-51.8865960224118, -71.6676439886726], [-52.53058983041048, -71.82417014797463], [-53.18587380379402, -71.9784620651357], [-53.85257148878905, -72.13045581372243], [-54.53079840839397, -72.28008628789134], [-55.22066119055538, -72.42728723839215], [-55.922256657581045, -72.57199131522695], [-56.635670878733066, -72.71413011739395], [-57.36097818854283, -72.85363425013904], [-58.09824017404047, -72.9904333901268], [-58.84750463479437, -73.12445635892406], [-59.608804520406004, -73.25563120516588], [-60.38215685089793, -73.38388529574047], [-61.167561626259015, -73.50914541629004], [-61.96500073226292, -73.63133788127583], [-62.774436850540695, -73.75038865379663], [-63.595812381752516, -73.86622347528377], [-64.4290483915508, -73.97876800511716], [-65.27404358983787, -74.08794797012044], [-66.13067335457615, -74.19368932379632], [-66.99878881208329, -74.29591841505712], [-67.87821598631663, -74.39456216609106], [-68.76875503009278, -74.489548258882], [-69.67017955147521, -74.58080532977205], [-70.58223604866976, -74.668263171322], [-71.50464346666813, -74.75185294058846], [-72.43709288855531, -74.83150737279801], [-72.70522270680355, -74.60630025365126], [-72.96552792705033, -74.38088472341123], [-73.21833584067973, -74.15527682890908], [-73.46395632329106, -73.92949182311928], [-73.70268293624864, -73.70354421776116], [-73.9347939492148, -73.47744783183585], [-74.16055328984666, -73.25121583644989], [-74.38021142633167, -73.02486079624394], [-74.59400618797221, -72.79839470771499], [-74.80216352860252, -72.57182903469341], [-75.00489823722903, -72.34517474121232], [-75.20241459992614, -72.11844232198489], [-75.39490701668984, -71.8916418306854], [-75.58256057664995, -71.6647829062125], [-75.76555159476568, -71.43787479709682], [-75.94404811287573, -71.210926384201], [-76.11821036774336, -70.98394620184679], [-76.28819122852411, -70.75694245749264], [-76.45413660589043, -70.52992305007386], [-76.61618583486921, -70.30289558710837], [-76.77447203328636, -70.07586740066189], [-76.92912243756234, -69.8488455622589], [-77.08025871746749, -69.62183689681788], [-77.22799727131967, -69.39484799568336], [-77.37244950299255, -69.16788522882126], [-77.51372208199805, -68.94095475623804], [-77.65191718780906, -68.71406253868021], [-77.78713273950102, -68.4872143476652], [-77.9194626117088, -68.26041577489133], [-78.04899683782115, -68.03367224107035], [-78.17582180126628, -67.80698900422293], [-78.30002041567856, -67.58037116747407], [-78.42167229467917, -67.35382368638274], [-78.5408539119493, -67.1273513758375], [-78.65763875222557, -66.90095891654715], [-78.77209745380223, -66.67465086115347], [-78.8842979430829, -66.44843163999128], [-78.99430556168547, -66.22230556651884], [-79.10218318656953, -65.99627684243987], [-79.2079913436214, -65.77034956253758], [-79.3117883151028, -65.54452771923873], [-79.41363024134046, -65.31881520692515], [-79.51357121700823, -65.09321582600843], [-79.6116633823299, -64.86773328678291], [-79.70795700950751, -64.6423712130703], [-79.802500584661, -64.41713314566923], [-79.89534088554478, -64.19202254562126], [-79.98652305528978, -63.9670427973047], [-80.07609067240324, -63.74219721136665]]]}, "properties": {"name": "antarctica"}}]}